NORAD_CAT_ID,OBJECT_NAME,OBJECT_TYPE,EPOCH,MEAN_MOTION,ECCENTRICITY,INCLINATION,RA_OF_ASC_NODE,ARG_OF_PERICENTER,MEAN_ANOMALY,BSTAR,MEAN_MOTION_DOT,MEAN_MOTION_DDOT,TLE_LINE0,TLE_LINE1,TLE_LINE2,SEMIMAJOR_AXIS,PERIOD,APOGEE,PERIGEE,DECAYED
51897.0,STARLINK-3598,PAYLOAD,2023-08-05 10:19:23,15.0884914,0.0001259,53.2175,291.537,113.294,246.8185,3.1118e-05,2.08e-06,0.0,0 STARLINK-3598,1 51897U 22022AX  23217.43013272  .00000208  00000-0  31118-4 0  9993,2 51897  53.2175 291.5370 0001259 113.2940 246.8185 15.08849140 80247,6917.852,95.437,540.588,538.846,0.0
51897.0,STARLINK-3598,PAYLOAD,2023-08-06 05:24:01,15.08832877,0.000139,53.2176,287.9682,105.9005,254.214,7.0036e-05,8.27e-06,0.0,0 STARLINK-3598,1 51897U 22022AX  23218.22502258  .00000827  00000-0  70036-4 0  9997,2 51897  53.2176 287.9682 0001390 105.9005 254.2140 15.08832877 80365,6917.902,95.438,540.729,538.806,0.0
51897.0,STARLINK-3598,PAYLOAD,2023-08-07 10:00:59,15.08833751,0.0001333,53.2182,282.6165,106.9055,253.2084,-5.8548e-05,-1.219e-05,0.0,0 STARLINK-3598,1 51897U 22022AX  23219.41735046 -.00001219  00000-0 -58548-4 0  9994,2 51897  53.2182 282.6165 0001333 106.9055 253.2084 15.08833751 80541,6917.899,95.438,540.687,538.842,0.0
51897.0,STARLINK-3598,PAYLOAD,2023-08-08 05:05:36,15.08839375,0.00012,53.2176,279.0478,99.0368,261.076,0.00011243,1.502e-05,0.0,0 STARLINK-3598,1 51897U 22022AX  23220.21222390  .00001502  00000-0  11243-3 0  9990,2 51897  53.2176 279.0478 0001200  99.0368 261.0760 15.08839375 80662,6917.882,95.438,540.577,538.917,0.0
51897.0,STARLINK-3598,PAYLOAD,2023-08-09 03:21:00,15.08828966,0.0001276,53.2161,274.884,81.4782,278.6354,8.2144e-05,1.019e-05,0.0,0 STARLINK-3598,1 51897U 22022AX  23221.13959304  .00001019  00000-0  82144-4 0  9996,2 51897  53.2161 274.8840 0001276  81.4782 278.6354 15.08828966 80803,6917.914,95.438,540.662,538.896,0.0
51897.0,STARLINK-3598,PAYLOAD,2023-08-10 03:11:47,15.08843249,0.0001298,53.2168,270.4237,80.3863,279.7275,3.372e-05,2.49e-06,0.0,0 STARLINK-3598,1 51897U 22022AX  23222.13318885  .00000249  00000-0  33720-4 0  9990,2 51897  53.2168 270.4237 0001298  80.3863 279.7275 15.08843249 80955,6917.87,95.437,540.633,538.838,0.0
51897.0,STARLINK-3598,PAYLOAD,2023-08-11 09:24:07,15.08839089,0.0001163,53.2158,264.7729,80.8771,279.2353,7.4826e-05,9.03e-06,0.0,0 STARLINK-3598,1 51897U 22022AX  23223.39174788  .00000903  00000-0  74826-4 0  9990,2 51897  53.2158 264.7729 0001163  80.8771 279.2353 15.08839089 81141,6917.883,95.438,540.553,538.944,0.0
51897.0,STARLINK-3598,PAYLOAD,2023-08-13 01:08:45,15.08835593,0.0001256,53.2153,257.3379,86.0844,274.0292,2.3559e-05,8.7e-07,0.0,0 STARLINK-3598,1 51897U 22022AX  23225.04775167  .00000087  00000-0  23559-4 0  9992,2 51897  53.2153 257.3379 0001256  86.0844 274.0292 15.08835593 81395,6917.894,95.438,540.628,538.89,0.0
51897.0,STARLINK-3598,PAYLOAD,2023-08-14 02:34:55,15.08836626,0.0001041,53.2157,252.5802,81.7493,278.3617,6.6316e-05,7.68e-06,0.0,0 STARLINK-3598,1 51897U 22022AX  23226.10759135  .00000768  00000-0  66316-4 0  9991,2 51897  53.2157 252.5802 0001041  81.7493 278.3617 15.08836626 81555,6917.891,95.438,540.476,539.036,0.0
51897.0,STARLINK-3598,PAYLOAD,2023-08-15 10:22:38,15.08838169,0.0001277,53.2162,246.6327,89.1688,270.945,6.0699e-05,6.78e-06,0.0,0 STARLINK-3598,1 51897U 22022AX  23227.43239275  .00000678  00000-0  60699-4 0  9994,2 51897  53.2162 246.6327 0001277  89.1688 270.9450 15.08838169 81755,6917.886,95.438,540.634,538.868,0.0
51897.0,STARLINK-3598,PAYLOAD,2023-08-16 18:10:21,15.08840822,0.0001336,53.2165,240.6855,88.1219,271.9926,2.7097e-05,1.43e-06,0.0,0 STARLINK-3598,1 51897U 22022AX  23228.75719192  .00000143  00000-0  27097-4 0  9993,2 51897  53.2165 240.6855 0001336  88.1219 271.9926 15.08840822 81953,6917.878,95.438,540.667,538.819,0.0
51897.0,STARLINK-3598,PAYLOAD,2023-08-18 00:22:41,15.08836678,0.0001358,53.2161,235.0352,88.0025,272.1123,1.107e-05,-1.12e-06,0.0,0 STARLINK-3598,1 51897U 22022AX  23230.01575581 -.00000112  00000-0  11070-4 0  9998,2 51897  53.2161 235.0352 0001358  88.0025 272.1123 15.08836678 82145,6917.891,95.438,540.695,538.816,0.0
51897.0,STARLINK-3598,PAYLOAD,2023-08-19 03:24:14,15.08843112,0.0001329,53.2157,229.9794,89.2219,270.8925,6.2015e-05,6.99e-06,0.0,0 STARLINK-3598,1 51897U 22022AX  23231.14183054  .00000699  00000-0  62015-4 0  9997,2 51897  53.2157 229.9794 0001329  89.2219 270.8925 15.08843112 82313,6917.871,95.437,540.655,538.816,0.0
51897.0,STARLINK-3598,PAYLOAD,2023-08-20 03:15:01,15.08833219,0.0001336,53.215,225.5184,89.7164,270.3982,2.2694e-05,7.3e-07,0.0,0 STARLINK-3598,1 51897U 22022AX  23232.13543902  .00000073  00000-0  22694-4 0  9994,2 51897  53.2150 225.5184 0001336  89.7164 270.3982 15.08833219 82464,6917.901,95.438,540.69,538.842,0.0
51897.0,STARLINK-3598,PAYLOAD,2023-08-21 03:05:46,15.08866486,0.0001196,53.2151,221.0585,99.2012,260.9115,0.00021079,3.071e-05,0.0,0 STARLINK-3598,1 51897U 22022AX  23233.12900916  .00003071  00000-0  21079-3 0  9992,2 51897  53.2151 221.0585 0001196  99.2012 260.9115 15.08866486 82615,6917.799,95.436,540.492,538.837,0.0
51897.0,STARLINK-3598,PAYLOAD,2023-08-22 04:31:58,15.08831148,0.0001355,53.2161,216.2966,94.7998,265.3149,-6.0231e-05,-1.246e-05,0.0,0 STARLINK-3598,1 51897U 22022AX  23234.18887610 -.00001246  00000-0 -60231-4 0  9992,2 51897  53.2161 216.2966 0001355  94.7998 265.3149 15.08831148 82775,6917.907,95.438,540.71,538.835,0.0
51897.0,STARLINK-3598,PAYLOAD,2023-08-23 07:33:32,15.08842368,0.0001314,53.2157,211.2464,92.9101,267.2042,-0.00019161,-3.336e-05,0.0,0 STARLINK-3598,1 51897U 22022AX  23235.31495791 -.00003336  00000-0 -19161-3 0  9990,2 51897  53.2157 211.2464 0001314  92.9101 267.2042 15.08842368 82947,6917.873,95.437,540.647,538.829,0.0
51897.0,STARLINK-3598,PAYLOAD,2023-08-24 07:24:19,15.0882907,0.0001559,53.2165,206.7839,88.9262,271.1909,0.00014399,2.004e-05,0.0,0 STARLINK-3598,1 51897U 22022AX  23236.30856237  .00002004  00000-0  14399-3 0  9993,2 51897  53.2165 206.7839 0001559  88.9262 271.1909 15.08829070 83093,6917.914,95.438,540.857,538.7,0.0
51897.0,STARLINK-3598,PAYLOAD,2023-08-25 02:28:57,15.08835927,0.0001565,53.2166,203.2152,91.3231,268.794,0.00010075,1.316e-05,0.0,0 STARLINK-3598,1 51897U 22022AX  23237.10344457  .00001316  00000-0  10075-3 0  9990,2 51897  53.2166 203.2152 0001565  91.3231 268.7940 15.08835927 83214,6917.893,95.438,540.84,538.675,0.0
51897.0,STARLINK-3598,PAYLOAD,2023-08-25 07:15:06,15.08839464,0.0001585,53.2168,202.3219,93.3108,266.8066,0.00012711,1.735e-05,0.0,0 STARLINK-3598,1 51897U 22022AX  23237.30216194  .00001735  00000-0  12711-3 0  9992,2 51897  53.2168 202.3219 0001585  93.3108 266.8066 15.08839464 83248,6917.882,95.438,540.844,538.651,0.0
51897.0,STARLINK-3598,PAYLOAD,2023-08-26 02:19:44,15.08841259,0.0001513,53.2162,198.7523,100.1258,259.9905,7.0817e-05,8.39e-06,0.0,0 STARLINK-3598,1 51897U 22022AX  23238.09704371  .00000839  00000-0  70817-4 0  9994,2 51897  53.2162 198.7523 0001513 100.1258 259.9905 15.08841259 83365,6917.877,95.437,540.788,538.695,0.0
51897.0,STARLINK-3598,PAYLOAD,2023-08-26 21:24:22,15.08840488,0.0001494,53.2157,195.182,97.2275,262.8887,2.7819e-05,1.55e-06,0.0,0 STARLINK-3598,1 51897U 22022AX  23238.89192531  .00000155  00000-0  27819-4 0  9996,2 51897  53.2157 195.1820 0001494  97.2275 262.8887 15.08840488 83481,6917.879,95.438,540.777,538.71,0.0
51897.0,STARLINK-3598,PAYLOAD,2023-08-27 02:10:30,15.08855567,0.0001885,53.2157,194.2894,125.8774,234.2394,0.00014955,2.094e-05,0.0,0 STARLINK-3598,1 51897U 22022AX  23239.09063016  .00002094  00000-0  14955-3 0  9994,2 51897  53.2157 194.2894 0001885 125.8774 234.2394 15.08855567 83512,6917.833,95.437,541.002,538.394,0.0
51897.0,STARLINK-3598,PAYLOAD,2023-08-27 06:56:40,15.08847882,0.0001496,53.2165,193.4027,103.8837,256.2322,6.2401e-05,7.05e-06,0.0,0 STARLINK-3598,1 51897U 22022AX  23239.28935815  .00000705  00000-0  62401-4 0  9997,2 51897  53.2165 193.4027 0001496 103.8837 256.2322 15.08847882 83543,6917.856,95.437,540.756,538.686,0.0
51897.0,STARLINK-3598,PAYLOAD,2023-08-27 21:15:09,15.08836273,0.0001538,53.2168,190.727,83.3872,276.7295,-7.0717e-06,-4.01e-06,0.0,0 STARLINK-3598,1 51897U 22022AX  23239.88552985 -.00000401  00000-0 -70717-5 0  9991,2 51897  53.2168 190.7270 0001538  83.3872 276.7295 15.08836273 83632,6917.892,95.438,540.821,538.693,0.0
51897.0,STARLINK-3598,PAYLOAD,2023-08-28 02:01:19,15.08837083,0.0001352,53.2173,189.8375,95.2532,264.8615,-3.471e-07,-2.93e-06,0.0,0 STARLINK-3598,1 51897U 22022AX  23240.08424897 -.00000293  00000-0 -34710-6 0  9998,2 51897  53.2173 189.8375 0001352  95.2532 264.8615 15.08837083 83669,6917.889,95.438,540.69,538.819,0.0
51897.0,STARLINK-3598,PAYLOAD,2023-08-28 13:09:01,15.08837331,0.0001489,53.2169,187.7526,100.6265,259.4895,2.1568e-05,5.5e-07,0.0,0 STARLINK-3598,1 51897U 22022AX  23240.54792825  .00000055  00000-0  21568-4 0  9997,2 51897  53.2169 187.7526 0001489 100.6265 259.4895 15.08837331 83738,6917.889,95.438,540.784,538.723,0.0
51897.0,STARLINK-3598,PAYLOAD,2023-08-29 03:27:28,15.08863062,0.0001485,53.2169,185.0785,102.5833,257.5325,-0.00027006,-4.586e-05,0.0,0 STARLINK-3598,1 51897U 22022AX  23241.14408164 -.00004586  00000-0 -27006-3 0  9991,2 51897  53.2169 185.0785 0001485 102.5833 257.5325 15.08863062 83821,6917.81,95.436,540.702,538.648,0.0
51897.0,STARLINK-3598,PAYLOAD,2023-08-29 12:59:48,15.08839224,0.0001287,53.2161,183.2955,93.2068,266.9071,-2.5988e-05,-7.01e-06,0.0,0 STARLINK-3598,1 51897U 22022AX  23241.54153019 -.00000701  00000-0 -25988-4 0  9994,2 51897  53.2161 183.2955 0001287  93.2068 266.9071 15.08839224 83889,6917.883,95.438,540.638,538.857,0.0
51897.0,STARLINK-3598,PAYLOAD,2023-08-30 01:42:53,15.08834786,0.0001214,53.2164,180.917,93.943,266.1701,5.3428e-05,5.62e-06,0.0,0 STARLINK-3598,1 51897U 22022AX  23242.07145387  .00000562  00000-0  53428-4 0  9995,2 51897  53.2164 180.9170 0001214  93.9430 266.1701 15.08834786 83964,6917.896,95.438,540.601,538.921,0.0
